[{"OBJECT_NAME":"CSTP 1.2 (STC 1.2)","OBJECT_ID":"2023-091W","EPOCH":"2026-03-09T23:12:27.821952","MEAN_MOTION":15.2718076,"ECCENTRICITY":0.00204388,"INCLINATION":97.5258,"RA_OF_ASC_NODE":134.3262,"ARG_OF_PERICENTER":84.9592,"MEAN_ANOMALY":275.3979,"EPHEMERIS_TYPE":0,"CLASSIFICATION_TYPE":"U","NORAD_CAT_ID":57186,"ELEMENT_SET_NO":999,"REV_AT_EPOCH":14930,"BSTAR":0.00043035718,"MEAN_MOTION_DOT":0.00011466,"MEAN_MOTION_DDOT":0},{"OBJECT_NAME":"STARLINK-34816","OBJECT_ID":"2025-195K","EPOCH":"2026-03-09T17:15:45.880992","MEAN_MOTION":15.30189195,"ECCENTRICITY":0.00013731,"INCLINATION":53.1594,"RA_OF_ASC_NODE":258.3708,"ARG_OF_PERICENTER":34.8226,"MEAN_ANOMALY":325.2865,"EPHEMERIS_TYPE":0,"CLASSIFICATION_TYPE":"U","NORAD_CAT_ID":65467,"ELEMENT_SET_NO":999,"REV_AT_EPOCH":2999,"BSTAR":0.00051660617,"MEAN_MOTION_DOT":0.00014967,"MEAN_MOTION_DDOT":0}]
